SL-3 R/B                
1 13403U 82079B   26093.46961776  .00009822  00000+0  38731-3 0  9998
2 13403  81.1476 163.8167 0025462  83.5673 276.8459 15.25137970381477
SL-14 R/B               
1 13553U 82092B   26093.55666280  .00000716  00000+0  77610-4 0  9994
2 13553  82.5651 118.1350 0019394 215.0194 259.5108 14.86690469332622
SL-3 R/B                
1 13819U 83010B   26093.40823738  .00024125  00000+0  47092-3 0  9997
2 13819  81.1036 331.9260 0015495 325.1669  34.8560 15.47213941361769
SL-3 R/B                
1 14208U 83075B   26093.52918741  .00017894  00000+0  46049-3 0  9999
2 14208  97.6133  99.0582 0022765 137.2462 223.0559 15.39037422333973
COSMOS 1536             
1 14699U 84013A   26093.47344885  .00011335  00000+0  46277-3 0  9999
2 14699  82.5419  83.2004 0013972 187.2704 172.8333 15.24186980276396
SL-14 R/B               
1 14820U 84027B   26093.40577361  .00000880  00000+0  97767-4 0  9994
2 14820  82.5426 221.8313 0016590 249.9799 109.9631 14.86005323251306
SL-8 R/B                
1 15483U 85006B   26093.50012082  .00000474  00000+0  16561-3 0  9994
2 15483  74.0460 215.4931 0017487 125.8708 307.7016 14.37802212157598
SL-12 R/B(2)            
1 15772U 85042D   26093.25329939  .00000239  00000+0  12875-3 0  9992
2 15772  71.1098  35.8305 0032833  87.3386  17.3739 14.21989969117881
SL-14 R/B               
1 15945U 85069B   26093.45033779  .00000790  00000+0  86372-4 0  9995
2 15945  82.5305   1.6570 0020299 108.7837 251.5584 14.86461682176510
SL-16 R/B               
1 16182U 85097B   26093.42756463 -.00000164  00000+0 -58111-4 0  9996
2 16182  71.0008  88.4708 0009249 230.3542 236.6309 14.16602794 90732
SL-14 R/B               
1 16496U 86006B   26093.42104014  .00001507  00000+0  15744-3 0  9998
2 16496  82.5260 236.4566 0076236 189.6315 170.3447 14.86860461152884
COSMOS 1743             
1 16719U 86034A   26093.34491267  .00065789  00000+0  78481-3 0  9996
2 16719  82.5319  47.9140 0005497 157.7602 202.3894 15.60792471184094
